[Satellite]
VERSION=1.1
NAME=COSMOS 2461 (735)
NICKNAME=COSMOS 2461 (735)
TLE1=1 36401U 10007B   22321.28846529 -.00000047  00000+0  00000+0 0  9996
TLE2=2 36401  65.9530 358.4162 0018530   1.3292   6.6640  2.13103606 98952
STATUS=0
